STARLINK-36903          
1 68001U 26039R   26067.91668981 -.01584883  00000+0 -63348-2 0  9998
2 68001  42.9976  59.5622 0001775 262.0647  99.3124 15.88245230  2750
STARLINK-36898          
1 68002U 26039S   26067.91668981 -.01590573  00000+0 -62707-2 0  9990
2 68002  42.9974  59.5448 0001788 262.1625 105.9372 15.88526353  2753
STARLINK-36862          
1 68003U 26039T   26067.91668981 -.01584876  00000+0 -61525-2 0  9997
2 68003  42.9975  59.5286 0001784 264.7062 109.8469 15.88820081  2759
STARLINK-36888          
1 68004U 26039U   26067.91668981 -.01583922  00000+0 -62844-2 0  9994
2 68004  42.9976  59.5541 0001734 261.6356 103.0467 15.88389903  2759
STARLINK-36910          
1 68005U 26039V   26067.91668981 -.01592975  00000+0 -62372-2 0  9999
2 68005  42.9974  59.5365 0001749 263.3288 108.1034 15.88666274  2756
STARLINK-36889          
1 68006U 26039W   26067.91668981 -.01584802  00000+0 -61062-2 0  9995
2 68006  42.9974  59.5200 0001753 265.7632 111.9863 15.88967669  2753
STARLINK-36592          
1 68007U 26039X   26067.91668981 -.01587422  00000+0 -60715-2 0  9991
2 68007  42.9971  59.5125 0001716 262.7413 118.1833 15.89116396  2750
STARLINK-36911          
1 68008U 26039Y   26067.91668981 -.01582519  00000+0 -60096-2 0  9996
2 68008  42.9974  59.5042 0001823 264.2031 119.9981 15.89246675  2751
STARLINK-36956          
1 68009U 26039Z   26067.91668981 -.01584411  00000+0 -59742-2 0  9996
2 68009  42.9972  59.4960 0001657 263.4180 123.9578 15.89390606  2750
STARLINK-36953          
1 68010U 26039AA  26067.91668981 -.01595225  00000+0 -59418-2 0  9993
2 68010  42.9972  59.4789 0001772 264.6004 129.4358 15.89646079  2752
STARLINK-36991          
1 68011U 26039AB  26067.91668981 -.01590719  00000+0 -58850-2 0  9996
2 68011  42.9972  59.4706 0001761 265.0914 132.2308 15.89770072  2753
STARLINK-36936          
1 68012U 26039AC  26067.91668981 -.01596102  00000+0 -58277-2 0  9992
2 68012  42.9971  59.4540 0001710 263.0178 140.7786 15.90035231  2750
STARLINK-36967          
1 68013U 26039AD  26067.91668981 -.01587743  00000+0 -59470-2 0  9990
2 68013  42.9971  59.4872 0001792 264.6405 126.0036 15.89524546  2754
STARLINK-36985          
1 68014U 26039AE  26067.91668981 -.01595276  00000+0 -58619-2 0  9995
2 68014  42.9972  59.4627 0001735 266.8447 133.6514 15.89909958  2750
STARLINK-36335          
1 68015U 26040A   26067.91668981 -.00929904  30988-3 -12429-2 0  9997
2 68015  97.2798  16.0138 0000984 101.1161 231.0158 16.06641116  2245
STARLINK-36923          
1 68016U 26040B   26067.91668981 -.00930860  31143-3 -12255-2 0  9992
2 68016  97.2798  16.0162 0000836  85.0081 251.4919 16.06886002  2291
