[{"OBJECT_NAME":"STARLINK-36903","OBJECT_ID":"2026-039R","EPOCH":"2026-03-08T22:00:01.999584","MEAN_MOTION":15.8824523,"ECCENTRICITY":0.00017759,"INCLINATION":42.9976,"RA_OF_ASC_NODE":59.5622,"ARG_OF_PERICENTER":262.0647,"MEAN_ANOMALY":99.3124,"EPHEMERIS_TYPE":0,"CLASSIFICATION_TYPE":"U","NORAD_CAT_ID":68001,"ELEMENT_SET_NO":999,"REV_AT_EPOCH":275,"BSTAR":-0.0063348333,"MEAN_MOTION_DOT":-0.01584883,"MEAN_MOTION_DDOT":0},{"OBJECT_NAME":"STARLINK-36898","OBJECT_ID":"2026-039S","EPOCH":"2026-03-08T22:00:01.999584","MEAN_MOTION":15.88526353,"ECCENTRICITY":0.00017888,"INCLINATION":42.9974,"RA_OF_ASC_NODE":59.5448,"ARG_OF_PERICENTER":262.1625,"MEAN_ANOMALY":105.9372,"EPHEMERIS_TYPE":0,"CLASSIFICATION_TYPE":"U","NORAD_CAT_ID":68002,"ELEMENT_SET_NO":999,"REV_AT_EPOCH":275,"BSTAR":-0.0062706982,"MEAN_MOTION_DOT":-0.01590573,"MEAN_MOTION_DDOT":0},{"OBJECT_NAME":"STARLINK-36862","OBJECT_ID":"2026-039T","EPOCH":"2026-03-08T22:00:01.999584","MEAN_MOTION":15.88820081,"ECCENTRICITY":0.00017846,"INCLINATION":42.9975,"RA_OF_ASC_NODE":59.5286,"ARG_OF_PERICENTER":264.7062,"MEAN_ANOMALY":109.8469,"EPHEMERIS_TYPE":0,"CLASSIFICATION_TYPE":"U","NORAD_CAT_ID":68003,"ELEMENT_SET_NO":999,"REV_AT_EPOCH":275,"BSTAR":-0.0061525005,"MEAN_MOTION_DOT":-0.01584876,"MEAN_MOTION_DDOT":0},{"OBJECT_NAME":"STARLINK-36888","OBJECT_ID":"2026-039U","EPOCH":"2026-03-08T22:00:01.999584","MEAN_MOTION":15.88389903,"ECCENTRICITY":0.0001734,"INCLINATION":42.9976,"RA_OF_ASC_NODE":59.5541,"ARG_OF_PERICENTER":261.6356,"MEAN_ANOMALY":103.0467,"EPHEMERIS_TYPE":0,"CLASSIFICATION_TYPE":"U","NORAD_CAT_ID":68004,"ELEMENT_SET_NO":999,"REV_AT_EPOCH":275,"BSTAR":-0.0062843969,"MEAN_MOTION_DOT":-0.01583922,"MEAN_MOTION_DDOT":0},{"OBJECT_NAME":"STARLINK-36910","OBJECT_ID":"2026-039V","EPOCH":"2026-03-08T22:00:01.999584","MEAN_MOTION":15.88666274,"ECCENTRICITY":0.00017495,"INCLINATION":42.9974,"RA_OF_ASC_NODE":59.5365,"ARG_OF_PERICENTER":263.3288,"MEAN_ANOMALY":108.1034,"EPHEMERIS_TYPE":0,"CLASSIFICATION_TYPE":"U","NORAD_CAT_ID":68005,"ELEMENT_SET_NO":999,"REV_AT_EPOCH":275,"BSTAR":-0.0062371522,"MEAN_MOTION_DOT":-0.01592975,"MEAN_MOTION_DDOT":0},{"OBJECT_NAME":"STARLINK-36889","OBJECT_ID":"2026-039W","EPOCH":"2026-03-08T22:00:01.999584","MEAN_MOTION":15.88967669,"ECCENTRICITY":0.00017538,"INCLINATION":42.9974,"RA_OF_ASC_NODE":59.52,"ARG_OF_PERICENTER":265.7632,"MEAN_ANOMALY":111.9863,"EPHEMERIS_TYPE":0,"CLASSIFICATION_TYPE":"U","NORAD_CAT_ID":68006,"ELEMENT_SET_NO":999,"REV_AT_EPOCH":275,"BSTAR":-0.0061061697,"MEAN_MOTION_DOT":-0.01584802,"MEAN_MOTION_DDOT":0},{"OBJECT_NAME":"STARLINK-36592","OBJECT_ID":"2026-039X","EPOCH":"2026-03-08T22:00:01.999584","MEAN_MOTION":15.89116396,"ECCENTRICITY":0.00017167,"INCLINATION":42.9971,"RA_OF_ASC_NODE":59.5125,"ARG_OF_PERICENTER":262.7413,"MEAN_ANOMALY":118.1833,"EPHEMERIS_TYPE":0,"CLASSIFICATION_TYPE":"U","NORAD_CAT_ID":68007,"ELEMENT_SET_NO":999,"REV_AT_EPOCH":275,"BSTAR":-0.0060715256,"MEAN_MOTION_DOT":-0.01587422,"MEAN_MOTION_DDOT":0},{"OBJECT_NAME":"STARLINK-36911","OBJECT_ID":"2026-039Y","EPOCH":"2026-03-08T22:00:01.999584","MEAN_MOTION":15.89246675,"ECCENTRICITY":0.00018234,"INCLINATION":42.9974,"RA_OF_ASC_NODE":59.5042,"ARG_OF_PERICENTER":264.2031,"MEAN_ANOMALY":119.9981,"EPHEMERIS_TYPE":0,"CLASSIFICATION_TYPE":"U","NORAD_CAT_ID":68008,"ELEMENT_SET_NO":999,"REV_AT_EPOCH":275,"BSTAR":-0.0060095573,"MEAN_MOTION_DOT":-0.01582519,"MEAN_MOTION_DDOT":0},{"OBJECT_NAME":"STARLINK-36956","OBJECT_ID":"2026-039Z","EPOCH":"2026-03-08T22:00:01.999584","MEAN_MOTION":15.89390606,"ECCENTRICITY":0.00016577,"INCLINATION":42.9972,"RA_OF_ASC_NODE":59.496,"ARG_OF_PERICENTER":263.418,"MEAN_ANOMALY":123.9578,"EPHEMERIS_TYPE":0,"CLASSIFICATION_TYPE":"U","NORAD_CAT_ID":68009,"ELEMENT_SET_NO":999,"REV_AT_EPOCH":275,"BSTAR":-0.0059741815,"MEAN_MOTION_DOT":-0.01584411,"MEAN_MOTION_DDOT":0},{"OBJECT_NAME":"STARLINK-36953","OBJECT_ID":"2026-039AA","EPOCH":"2026-03-08T22:00:01.999584","MEAN_MOTION":15.89646079,"ECCENTRICITY":0.00017728,"INCLINATION":42.9972,"RA_OF_ASC_NODE":59.4789,"ARG_OF_PERICENTER":264.6004,"MEAN_ANOMALY":129.4358,"EPHEMERIS_TYPE":0,"CLASSIFICATION_TYPE":"U","NORAD_CAT_ID":68010,"ELEMENT_SET_NO":999,"REV_AT_EPOCH":275,"BSTAR":-0.0059417623,"MEAN_MOTION_DOT":-0.01595225,"MEAN_MOTION_DDOT":0},{"OBJECT_NAME":"STARLINK-36991","OBJECT_ID":"2026-039AB","EPOCH":"2026-03-08T22:00:01.999584","MEAN_MOTION":15.89770072,"ECCENTRICITY":0.00017617,"INCLINATION":42.9972,"RA_OF_ASC_NODE":59.4706,"ARG_OF_PERICENTER":265.0914,"MEAN_ANOMALY":132.2308,"EPHEMERIS_TYPE":0,"CLASSIFICATION_TYPE":"U","NORAD_CAT_ID":68011,"ELEMENT_SET_NO":999,"REV_AT_EPOCH":275,"BSTAR":-0.005885002,"MEAN_MOTION_DOT":-0.01590719,"MEAN_MOTION_DDOT":0},{"OBJECT_NAME":"STARLINK-36936","OBJECT_ID":"2026-039AC","EPOCH":"2026-03-08T22:00:01.999584","MEAN_MOTION":15.90035231,"ECCENTRICITY":0.00017105,"INCLINATION":42.9971,"RA_OF_ASC_NODE":59.454,"ARG_OF_PERICENTER":263.0178,"MEAN_ANOMALY":140.7786,"EPHEMERIS_TYPE":0,"CLASSIFICATION_TYPE":"U","NORAD_CAT_ID":68012,"ELEMENT_SET_NO":999,"REV_AT_EPOCH":275,"BSTAR":-0.0058276652,"MEAN_MOTION_DOT":-0.01596102,"MEAN_MOTION_DDOT":0},{"OBJECT_NAME":"STARLINK-36967","OBJECT_ID":"2026-039AD","EPOCH":"2026-03-08T22:00:01.999584","MEAN_MOTION":15.89524546,"ECCENTRICITY":0.00017927,"INCLINATION":42.9971,"RA_OF_ASC_NODE":59.4872,"ARG_OF_PERICENTER":264.6405,"MEAN_ANOMALY":126.0036,"EPHEMERIS_TYPE":0,"CLASSIFICATION_TYPE":"U","NORAD_CAT_ID":68013,"ELEMENT_SET_NO":999,"REV_AT_EPOCH":275,"BSTAR":-0.0059469502,"MEAN_MOTION_DOT":-0.01587743,"MEAN_MOTION_DDOT":0},{"OBJECT_NAME":"STARLINK-36985","OBJECT_ID":"2026-039AE","EPOCH":"2026-03-08T22:00:01.999584","MEAN_MOTION":15.89909958,"ECCENTRICITY":0.00017358,"INCLINATION":42.9972,"RA_OF_ASC_NODE":59.4627,"ARG_OF_PERICENTER":266.8447,"MEAN_ANOMALY":133.6514,"EPHEMERIS_TYPE":0,"CLASSIFICATION_TYPE":"U","NORAD_CAT_ID":68014,"ELEMENT_SET_NO":999,"REV_AT_EPOCH":275,"BSTAR":-0.0058619139,"MEAN_MOTION_DOT":-0.01595276,"MEAN_MOTION_DDOT":0},{"OBJECT_NAME":"STARLINK-36335","OBJECT_ID":"2026-040A","EPOCH":"2026-03-08T22:00:01.999584","MEAN_MOTION":16.06641116,"ECCENTRICITY":9.841e-5,"INCLINATION":97.2798,"RA_OF_ASC_NODE":16.0138,"ARG_OF_PERICENTER":101.1161,"MEAN_ANOMALY":231.0158,"EPHEMERIS_TYPE":0,"CLASSIFICATION_TYPE":"U","NORAD_CAT_ID":68015,"ELEMENT_SET_NO":999,"REV_AT_EPOCH":224,"BSTAR":-0.0012429369,"MEAN_MOTION_DOT":-0.00929904,"MEAN_MOTION_DDOT":0.00030988486},{"OBJECT_NAME":"STARLINK-36923","OBJECT_ID":"2026-040B","EPOCH":"2026-03-08T22:00:01.999584","MEAN_MOTION":16.06886002,"ECCENTRICITY":8.368e-5,"INCLINATION":97.2798,"RA_OF_ASC_NODE":16.0162,"ARG_OF_PERICENTER":85.0081,"MEAN_ANOMALY":251.4919,"EPHEMERIS_TYPE":0,"CLASSIFICATION_TYPE":"U","NORAD_CAT_ID":68016,"ELEMENT_SET_NO":999,"REV_AT_EPOCH":229,"BSTAR":-0.0012255455,"MEAN_MOTION_DOT":-0.0093086,"MEAN_MOTION_DDOT":0.00031142612}]
